start=new Date('2023-05-30T00:00:00.000Z').valueOf();
sats=[{"CLASSIFICATION_TYPE":"U","CENTER_NAME":"EARTH","RA_OF_ASC_NODE":"39.8409","OBJECT_ID":"2022-083X","DECAY_DATE":null,"RCS_SIZE":"LARGE","SITE":"AFETR","TIME_SYSTEM":"UTC","MEAN_ELEMENT_THEORY":"SGP4","REF_FRAME":"TEME","PERIOD":"95.438","COUNTRY_CODE":"US","TLE_LINE1":"1 53153U 22083X   23149.86665775 -.00000746  00000-0 -28815-4 0  9998","MEAN_ANOMALY":"288.5390","PERIAPSIS":"538.867","ELEMENT_SET_NO":"999","NORAD_CAT_ID":"53153","ECCENTRICITY":"0.00012900","BSTAR":"-0.00002881500000","SEMIMAJOR_AXIS":"6917.895","ARG_OF_PERICENTER":"71.5742","EPOCH":"2023-05-29T20:47:59.229600","GP_ID":"232781038","MEAN_MOTION":"15.08835254","OBJECT_NAME":"STARLINK-4098","MEAN_MOTION_DOT":"-0.00000746","TLE_LINE2":"2 53153  53.2188  39.8409 0001290  71.5742 288.5390 15.08835254 48151","REV_AT_EPOCH":"4815","APOAPSIS":"540.652","MEAN_MOTION_DDOT":"0.0000000000000","LAUNCH_DATE":"2022-07-17","EPHEMERIS_TYPE":"0","FILE":"3920354","OBJECT_TYPE":"PAYLOAD","INCLINATION":"53.2188"},{"OBJECT_ID":"2022-083Y","DECAY_DATE":null,"CLASSIFICATION_TYPE":"U","CENTER_NAME":"EARTH","RA_OF_ASC_NODE":"39.8062","SITE":"AFETR","MEAN_ELEMENT_THEORY":"SGP4","TIME_SYSTEM":"UTC","REF_FRAME":"TEME","PERIOD":"95.438","RCS_SIZE":"LARGE","COUNTRY_CODE":"US","TLE_LINE1":"1 53154U 22083Y   23149.87401711 -.00000370  00000-0 -51662-5 0  9998","ELEMENT_SET_NO":"999","NORAD_CAT_ID":"53154","MEAN_ANOMALY":"257.7385","PERIAPSIS":"539.024","BSTAR":"-0.00000516620000","ECCENTRICITY":"0.00010720","GP_ID":"232781277","MEAN_MOTION":"15.08833273","ARG_OF_PERICENTER":"102.3727","SEMIMAJOR_AXIS":"6917.901","EPOCH":"2023-05-29T20:58:35.078304","MEAN_MOTION_DOT":"-0.00000370","TLE_LINE2":"2 53154  53.2187  39.8062 0001072 102.3727 257.7385 15.08833273 48151","REV_AT_EPOCH":"4815","APOAPSIS":"540.508","MEAN_MOTION_DDOT":"0.0000000000000","OBJECT_NAME":"STARLINK-4077","INCLINATION":"53.2187","OBJECT_TYPE":"PAYLOAD","LAUNCH_DATE":"2022-07-17","EPHEMERIS_TYPE":"0","FILE":"3920354"},{"ARG_OF_PERICENTER":"82.8990","SEMIMAJOR_AXIS":"6917.887","EPOCH":"2023-05-29T20:37:22.948032","GP_ID":"232780536","MEAN_MOTION":"15.08837827","ECCENTRICITY":"0.00010210","BSTAR":"-0.00001014800000","LAUNCH_DATE":"2022-07-17","EPHEMERIS_TYPE":"0","FILE":"3920354","OBJECT_TYPE":"PAYLOAD","INCLINATION":"53.2171","OBJECT_NAME":"STARLINK-4088","MEAN_MOTION_DOT":"-0.00000449","TLE_LINE2":"2 53155  53.2171  39.8712 0001021  82.8990 277.2118 15.08837827 48795","APOAPSIS":"540.458","REV_AT_EPOCH":"4879","MEAN_MOTION_DDOT":"0.0000000000000","RCS_SIZE":"LARGE","SITE":"AFETR","TIME_SYSTEM":"UTC","MEAN_ELEMENT_THEORY":"SGP4","REF_FRAME":"TEME","PERIOD":"95.438","CLASSIFICATION_TYPE":"U","CENTER_NAME":"EARTH","RA_OF_ASC_NODE":"39.8712","OBJECT_ID":"2022-083Z","DECAY_DATE":null,"MEAN_ANOMALY":"277.2118","PERIAPSIS":"539.046","ELEMENT_SET_NO":"999","NORAD_CAT_ID":"53155","COUNTRY_CODE":"US","TLE_LINE1":"1 53155U 22083Z   23149.85929338 -.00000449  00000-0 -10148-4 0  9997"},{"OBJECT_ID":"2022-083AA","DECAY_DATE":null,"RA_OF_ASC_NODE":"39.7867","CENTER_NAME":"EARTH","CLASSIFICATION_TYPE":"U","REF_FRAME":"TEME","PERIOD":"95.438","SITE":"AFETR","MEAN_ELEMENT_THEORY":"SGP4","TIME_SYSTEM":"UTC","RCS_SIZE":"LARGE","TLE_LINE1":"1 53156U 22083AA  23149.84823879 -.00000875  00000-0 -36870-4 0  9993","COUNTRY_CODE":"US","NORAD_CAT_ID":"53156","ELEMENT_SET_NO":"999","PERIAPSIS":"538.824","MEAN_ANOMALY":"246.8371","ECCENTRICITY":"0.00013520","BSTAR":"-0.00003687000000","GP_ID":"232780287","MEAN_MOTION":"15.08835603","EPOCH":"2023-05-29T20:21:27.831456","SEMIMAJOR_AXIS":"6917.894","ARG_OF_PERICENTER":"113.2763","APOAPSIS":"540.694","REV_AT_EPOCH":"4815","MEAN_MOTION_DDOT":"0.0000000000000","MEAN_MOTION_DOT":"-0.00000875","TLE_LINE2":"2 53156  53.2190  39.7867 0001352 113.2763 246.8371 15.08835603 48154","OBJECT_NAME":"STARLINK-4087","OBJECT_TYPE":"PAYLOAD","INCLINATION":"53.2190","FILE":"3920354","LAUNCH_DATE":"2022-07-17","EPHEMERIS_TYPE":"0"},{"PERIAPSIS":"538.963","MEAN_ANOMALY":"275.4291","NORAD_CAT_ID":"53157","ELEMENT_SET_NO":"999","COUNTRY_CODE":"US","TLE_LINE1":"1 53157U 22083AB  23149.85193400 -.00000525  00000-0 -14888-4 0  9992","RCS_SIZE":"LARGE","PERIOD":"95.438","REF_FRAME":"TEME","TIME_SYSTEM":"UTC","MEAN_ELEMENT_THEORY":"SGP4","SITE":"AFETR","RA_OF_ASC_NODE":"39.9022","CLASSIFICATION_TYPE":"U","CENTER_NAME":"EARTH","DECAY_DATE":null,"OBJECT_ID":"2022-083AB","FILE":"3920354","EPHEMERIS_TYPE":"0","LAUNCH_DATE":"2022-07-17","OBJECT_TYPE":"PAYLOAD","INCLINATION":"53.2174","OBJECT_NAME":"STARLINK-4093","REV_AT_EPOCH":"4815","APOAPSIS":"540.557","MEAN_MOTION_DDOT":"0.0000000000000","TLE_LINE2":"2 53157  53.2174  39.9022 0001152  84.6832 275.4291 15.08835134 48156","MEAN_MOTION_DOT":"-0.00000525","EPOCH":"2023-05-29T20:26:47.097600","SEMIMAJOR_AXIS":"6917.895","ARG_OF_PERICENTER":"84.6832","MEAN_MOTION":"15.08835134","GP_ID":"232781538","ECCENTRICITY":"0.00011520","BSTAR":"-0.00001488800000"},{"ECCENTRICITY":"0.00013210","BSTAR":"0.00091851000000","MEAN_MOTION":"15.08770419","GP_ID":"232781777","EPOCH":"2023-05-29T20:42:42.120000","ARG_OF_PERICENTER":"95.0382","SEMIMAJOR_AXIS":"6918.093","APOAPSIS":"540.872","REV_AT_EPOCH":"4815","MEAN_MOTION_DDOT":"0.0000000000000","TLE_LINE2":"2 53158  53.2169  39.8586 0001321  95.0382 265.0761 15.08770419 48150","MEAN_MOTION_DOT":"0.00014333","OBJECT_NAME":"STARLINK-4054","INCLINATION":"53.2169","OBJECT_TYPE":"PAYLOAD","FILE":"3920354","EPHEMERIS_TYPE":"0","LAUNCH_DATE":"2022-07-17","DECAY_DATE":null,"OBJECT_ID":"2022-083AC","RA_OF_ASC_NODE":"39.8586","CLASSIFICATION_TYPE":"U","CENTER_NAME":"EARTH","PERIOD":"95.442","REF_FRAME":"TEME","MEAN_ELEMENT_THEORY":"SGP4","TIME_SYSTEM":"UTC","SITE":"AFETR","RCS_SIZE":"LARGE","TLE_LINE1":"1 53158U 22083AC  23149.86298750  .00014333  00000-0  91851-3 0  9992","COUNTRY_CODE":"US","NORAD_CAT_ID":"53158","ELEMENT_SET_NO":"999","PERIAPSIS":"539.044","MEAN_ANOMALY":"265.0761"},{"MEAN_ANOMALY":"249.4764","PERIAPSIS":"538.669","ELEMENT_SET_NO":"999","NORAD_CAT_ID":"53159","TLE_LINE1":"1 53159U 22083AD  23149.84457295 -.00001228  00000-0 -59087-4 0  9999","COUNTRY_CODE":"US","RCS_SIZE":"LARGE","SITE":"AFETR","MEAN_ELEMENT_THEORY":"SGP4","TIME_SYSTEM":"UTC","REF_FRAME":"TEME","PERIOD":"95.438","CLASSIFICATION_TYPE":"U","CENTER_NAME":"EARTH","RA_OF_ASC_NODE":"39.9307","OBJECT_ID":"2022-083AD","DECAY_DATE":null,"LAUNCH_DATE":"2022-07-17","EPHEMERIS_TYPE":"0","FILE":"3920354","INCLINATION":"53.2168","OBJECT_TYPE":"PAYLOAD","OBJECT_NAME":"STARLINK-4111","MEAN_MOTION_DOT":"-0.00001228","TLE_LINE2":"2 53159  53.2168  39.9307 0001572 110.6397 249.4764 15.08836407 48159","REV_AT_EPOCH":"4815","APOAPSIS":"540.844","MEAN_MOTION_DDOT":"0.0000000000000","SEMIMAJOR_AXIS":"6917.891","ARG_OF_PERICENTER":"110.6397","EPOCH":"2023-05-29T20:16:11.102880","GP_ID":"232780037","MEAN_MOTION":"15.08836407","ECCENTRICITY":"0.00015720","BSTAR":"-0.00005908700000"},{"TLE_LINE2":"2 53160  53.2178  39.8898 0001144  96.4278 263.6845 15.08832388 48152","MEAN_MOTION_DOT":"-0.00001115","APOAPSIS":"540.560","REV_AT_EPOCH":"4815","MEAN_MOTION_DDOT":"0.0000000000000","OBJECT_NAME":"STARLINK-4096","INCLINATION":"53.2178","OBJECT_TYPE":"PAYLOAD","EPHEMERIS_TYPE":"0","LAUNCH_DATE":"2022-07-17","FILE":"3920354","ECCENTRICITY":"0.00011440","BSTAR":"-0.00005196500000","MEAN_MOTION":"15.08832388","GP_ID":"232780787","ARG_OF_PERICENTER":"96.4278","SEMIMAJOR_AXIS":"6917.904","EPOCH":"2023-05-29T20:32:05.213760","TLE_LINE1":"1 53160U 22083AE  23149.85561590 -.00001115  00000-0 -51965-4 0  9998","COUNTRY_CODE":"US","ELEMENT_SET_NO":"999","NORAD_CAT_ID":"53160","MEAN_ANOMALY":"263.6845","PERIAPSIS":"538.977","DECAY_DATE":null,"OBJECT_ID":"2022-083AE","CLASSIFICATION_TYPE":"U","CENTER_NAME":"EARTH","RA_OF_ASC_NODE":"39.8898","TIME_SYSTEM":"UTC","MEAN_ELEMENT_THEORY":"SGP4","SITE":"AFETR","PERIOD":"95.438","REF_FRAME":"TEME","RCS_SIZE":"LARGE"},{"COUNTRY_CODE":"US","TLE_LINE1":"1 53161U 22083AF  23149.89977475  .00001202  00000-0  93617-4 0  9991","NORAD_CAT_ID":"53161","ELEMENT_SET_NO":"999","PERIAPSIS":"539.064","MEAN_ANOMALY":"272.6131","DECAY_DATE":null,"OBJECT_ID":"2022-083AF","RA_OF_ASC_NODE":"39.6893","CLASSIFICATION_TYPE":"U","CENTER_NAME":"EARTH","PERIOD":"95.438","REF_FRAME":"TEME","TIME_SYSTEM":"UTC","MEAN_ELEMENT_THEORY":"SGP4","SITE":"AFETR","RCS_SIZE":"LARGE","APOAPSIS":"540.500","REV_AT_EPOCH":"4816","MEAN_MOTION_DDOT":"0.0000000000000","TLE_LINE2":"2 53161  53.2178  39.6893 0001038  87.4980 272.6131 15.08828075 48165","MEAN_MOTION_DOT":"0.00001202","OBJECT_NAME":"STARLINK-4055","OBJECT_TYPE":"PAYLOAD","INCLINATION":"53.2178","FILE":"3920354","EPHEMERIS_TYPE":"0","LAUNCH_DATE":"2022-07-17","BSTAR":"0.00009361700000","ECCENTRICITY":"0.00010380","MEAN_MOTION":"15.08828075","GP_ID":"232781039","EPOCH":"2023-05-29T21:35:40.538400","ARG_OF_PERICENTER":"87.4980","SEMIMAJOR_AXIS":"6917.917"},{"TLE_LINE1":"1 53162U 22083AG  23149.84920986 -.00001289  00000-0 -62917-4 0  9998","COUNTRY_CODE":"US","ELEMENT_SET_NO":"999","NORAD_CAT_ID":"53162","MEAN_ANOMALY":"261.2607","PERIAPSIS":"538.907","OBJECT_ID":"2022-083AG","DECAY_DATE":null,"CLASSIFICATION_TYPE":"U","CENTER_NAME":"EARTH","RA_OF_ASC_NODE":"39.9215","SITE":"AFETR","TIME_SYSTEM":"UTC","MEAN_ELEMENT_THEORY":"SGP4","REF_FRAME":"TEME","PERIOD":"95.438","RCS_SIZE":"LARGE","MEAN_MOTION_DOT":"-0.00001289","TLE_LINE2":"2 53162  53.2178  39.9215 0001235  98.8525 261.2607 15.08834833 48157","MEAN_MOTION_DDOT":"0.0000000000000","APOAPSIS":"540.616","REV_AT_EPOCH":"4815","OBJECT_NAME":"STARLINK-4114","OBJECT_TYPE":"PAYLOAD","INCLINATION":"53.2178","LAUNCH_DATE":"2022-07-17","EPHEMERIS_TYPE":"0","FILE":"3920354","ECCENTRICITY":"0.00012350","BSTAR":"-0.00006291700000","GP_ID":"232781278","MEAN_MOTION":"15.08834833","ARG_OF_PERICENTER":"98.8525","SEMIMAJOR_AXIS":"6917.896","EPOCH":"2023-05-29T20:22:51.731904"}];
